start=new Date('2021-08-22T00:00:00.000Z').valueOf();
sats=[{"NORAD_CAT_ID":"46784","ECCENTRICITY":"0.00010560","OBJECT_TYPE":"PAYLOAD","INCLINATION":"53.0536","TIME_SYSTEM":"UTC","BSTAR":"0.00006612000000","SITE":"AFETR","MEAN_ANOMALY":"296.3448","REF_FRAME":"TEME","DECAY_DATE":null,"FILE":"3101125","RA_OF_ASC_NODE":"206.5406","MEAN_ELEMENT_THEORY":"SGP4","PERIAPSIS":"546.471","PERIOD":"95.592","CENTER_NAME":"EARTH","MEAN_MOTION":"15.06403674","TLE_LINE1":"1 46784U 20074AX  21234.04326483  .00000704  00000-0  66120-4 0  9994","OBJECT_NAME":"STARLINK-1882","EPOCH":"2021-08-22T01:02:18.081312","OBJECT_ID":"2020-074AX","MEAN_MOTION_DDOT":"0.0000000000000","RCS_SIZE":"LARGE","EPHEMERIS_TYPE":"0","CLASSIFICATION_TYPE":"U","APOAPSIS":"547.934","MEAN_MOTION_DOT":"0.00000704","SEMIMAJOR_AXIS":"6925.337","TLE_LINE2":"2 46784  53.0536 206.5406 0001056  63.7650 296.3448 15.06403674 46186","GP_ID":"183218262","REV_AT_EPOCH":"4618","ELEMENT_SET_NO":"999","ARG_OF_PERICENTER":"63.7650","LAUNCH_DATE":"2020-10-24","COUNTRY_CODE":"US"},{"ARG_OF_PERICENTER":"37.4788","COUNTRY_CODE":"US","LAUNCH_DATE":"2020-10-24","ELEMENT_SET_NO":"999","REV_AT_EPOCH":"4645","TLE_LINE2":"2 46785  53.0554 208.4051 0007349  37.4788 322.6713 15.06401972 46452","GP_ID":"183213325","APOAPSIS":"552.297","SEMIMAJOR_AXIS":"6925.343","MEAN_MOTION_DOT":"0.00000367","CLASSIFICATION_TYPE":"U","EPHEMERIS_TYPE":"0","MEAN_MOTION_DDOT":"0.0000000000000","OBJECT_ID":"2020-074AY","RCS_SIZE":"LARGE","OBJECT_NAME":"STARLINK-1883","TLE_LINE1":"1 46785U 20074AY  21233.63043164  .00000367  00000-0  43704-4 0  9999","MEAN_MOTION":"15.06401972","EPOCH":"2021-08-21T15:07:49.293696","CENTER_NAME":"EARTH","MEAN_ELEMENT_THEORY":"SGP4","RA_OF_ASC_NODE":"208.4051","PERIOD":"95.592","PERIAPSIS":"542.118","REF_FRAME":"TEME","FILE":"3101032","DECAY_DATE":null,"SITE":"AFETR","MEAN_ANOMALY":"322.6713","BSTAR":"0.00004370400000","TIME_SYSTEM":"UTC","INCLINATION":"53.0554","ECCENTRICITY":"0.00073490","OBJECT_TYPE":"PAYLOAD","NORAD_CAT_ID":"46785"},{"TLE_LINE1":"1 46786U 20074AZ  21233.87552393 -.00001026  00000-0 -49862-4 0  9991","MEAN_MOTION":"15.06398400","OBJECT_NAME":"STARLINK-1893","EPOCH":"2021-08-21T21:00:45.267552","CENTER_NAME":"EARTH","PERIOD":"95.592","PERIAPSIS":"543.756","MEAN_ELEMENT_THEORY":"SGP4","RA_OF_ASC_NODE":"187.3174","DECAY_DATE":null,"FILE":"3101032","REF_FRAME":"TEME","SITE":"AFETR","MEAN_ANOMALY":"154.9848","BSTAR":"-0.00004986200000","TIME_SYSTEM":"UTC","INCLINATION":"53.0502","OBJECT_TYPE":"PAYLOAD","ECCENTRICITY":"0.00050000","NORAD_CAT_ID":"46786","COUNTRY_CODE":"US","LAUNCH_DATE":"2020-10-24","ARG_OF_PERICENTER":"205.0899","ELEMENT_SET_NO":"999","REV_AT_EPOCH":"4677","GP_ID":"183213573","TLE_LINE2":"2 46786  53.0502 187.3174 0005000 205.0899 154.9848 15.06398400 46776","SEMIMAJOR_AXIS":"6925.353","MEAN_MOTION_DOT":"-0.00001026","APOAPSIS":"550.681","CLASSIFICATION_TYPE":"U","EPHEMERIS_TYPE":"0","RCS_SIZE":"LARGE","MEAN_MOTION_DDOT":"0.0000000000000","OBJECT_ID":"2020-074AZ"},{"NORAD_CAT_ID":"46787","ECCENTRICITY":"0.00065790","OBJECT_TYPE":"PAYLOAD","INCLINATION":"53.0474","TIME_SYSTEM":"UTC","BSTAR":"0.00007519200000","MEAN_ANOMALY":"226.2935","SITE":"AFETR","REF_FRAME":"TEME","FILE":"3101209","DECAY_DATE":null,"RA_OF_ASC_NODE":"186.1716","MEAN_ELEMENT_THEORY":"SGP4","PERIAPSIS":"542.675","PERIOD":"95.592","CENTER_NAME":"EARTH","TLE_LINE1":"1 46787U 20074BA  21234.13355859  .00000837  00000-0  75192-4 0  9992","OBJECT_NAME":"STARLINK-1899","MEAN_MOTION":"15.06394376","EPOCH":"2021-08-22T03:12:19.462176","OBJECT_ID":"2020-074BA","MEAN_MOTION_DDOT":"0.0000000000000","RCS_SIZE":"LARGE","EPHEMERIS_TYPE":"0","CLASSIFICATION_TYPE":"U","APOAPSIS":"551.787","MEAN_MOTION_DOT":"0.00000837","SEMIMAJOR_AXIS":"6925.366","TLE_LINE2":"2 46787  53.0474 186.1716 0006579 133.8598 226.2935 15.06394376 46497","GP_ID":"183220007","REV_AT_EPOCH":"4649","ELEMENT_SET_NO":"999","ARG_OF_PERICENTER":"133.8598","LAUNCH_DATE":"2020-10-24","COUNTRY_CODE":"US"},{"TIME_SYSTEM":"UTC","INCLINATION":"53.0562","SITE":"AFETR","MEAN_ANOMALY":"158.0398","BSTAR":"-0.00004237500000","NORAD_CAT_ID":"46788","ECCENTRICITY":"0.00062410","OBJECT_TYPE":"PAYLOAD","CENTER_NAME":"EARTH","TLE_LINE1":"1 46788U 20074BB  21233.86078441 -.00000915  00000-0 -42375-4 0  9997","MEAN_MOTION":"15.06393034","EPOCH":"2021-08-21T20:39:31.773024","OBJECT_NAME":"STARLINK-1929","REF_FRAME":"TEME","FILE":"3101032","DECAY_DATE":null,"MEAN_ELEMENT_THEORY":"SGP4","RA_OF_ASC_NODE":"187.3564","PERIOD":"95.593","PERIAPSIS":"542.913","APOAPSIS":"551.557","SEMIMAJOR_AXIS":"6925.370","MEAN_MOTION_DOT":"-0.00000915","TLE_LINE2":"2 46788  53.0562 187.3564 0006241 202.0324 158.0398 15.06393034 46778","GP_ID":"183214561","MEAN_MOTION_DDOT":"0.0000000000000","OBJECT_ID":"2020-074BB","RCS_SIZE":"LARGE","CLASSIFICATION_TYPE":"U","EPHEMERIS_TYPE":"0","ELEMENT_SET_NO":"999","ARG_OF_PERICENTER":"202.0324","COUNTRY_CODE":"US","LAUNCH_DATE":"2020-10-24","REV_AT_EPOCH":"4677"},{"TLE_LINE2":"2 46789  53.0529 218.2365 0001098  50.2319 309.8766 15.06399006 46328","GP_ID":"183213826","APOAPSIS":"547.977","SEMIMAJOR_AXIS":"6925.352","MEAN_MOTION_DOT":"-0.00001458","CLASSIFICATION_TYPE":"U","EPHEMERIS_TYPE":"0","MEAN_MOTION_DDOT":"0.0000000000000","OBJECT_ID":"2020-074BC","RCS_SIZE":"LARGE","ARG_OF_PERICENTER":"50.2319","COUNTRY_CODE":"US","LAUNCH_DATE":"2020-10-24","ELEMENT_SET_NO":"999","REV_AT_EPOCH":"4632","SITE":"AFETR","MEAN_ANOMALY":"309.8766","BSTAR":"-0.00007901300000","TIME_SYSTEM":"UTC","INCLINATION":"53.0529","ECCENTRICITY":"0.00010980","OBJECT_TYPE":"PAYLOAD","NORAD_CAT_ID":"46789","TLE_LINE1":"1 46789U 20074BC  21233.66910353 -.00001458  00000-0 -79013-4 0  9995","OBJECT_NAME":"STARLINK-1930","MEAN_MOTION":"15.06399006","EPOCH":"2021-08-21T16:03:30.544992","CENTER_NAME":"EARTH","MEAN_ELEMENT_THEORY":"SGP4","RA_OF_ASC_NODE":"218.2365","PERIOD":"95.592","PERIAPSIS":"546.456","REF_FRAME":"TEME","DECAY_DATE":null,"FILE":"3101032"},{"REV_AT_EPOCH":"4636","ARG_OF_PERICENTER":"40.2938","COUNTRY_CODE":"US","LAUNCH_DATE":"2020-10-24","ELEMENT_SET_NO":"999","CLASSIFICATION_TYPE":"U","EPHEMERIS_TYPE":"0","MEAN_MOTION_DDOT":"0.0000000000000","OBJECT_ID":"2020-074BD","RCS_SIZE":"LARGE","TLE_LINE2":"2 46790  53.0543 216.8255 0001003  40.2938 319.8125 15.06389232 46364","GP_ID":"183214074","APOAPSIS":"547.941","SEMIMAJOR_AXIS":"6925.382","MEAN_MOTION_DOT":"0.00000728","MEAN_ELEMENT_THEORY":"SGP4","RA_OF_ASC_NODE":"216.8255","PERIOD":"95.593","PERIAPSIS":"546.552","REF_FRAME":"TEME","DECAY_DATE":null,"FILE":"3101032","EPOCH":"2021-08-21T23:30:44.702784","TLE_LINE1":"1 46790U 20074BD  21233.97968406  .00000728  00000-0  67762-4 0  9998","MEAN_MOTION":"15.06389232","OBJECT_NAME":"STARLINK-1931","CENTER_NAME":"EARTH","ECCENTRICITY":"0.00010030","OBJECT_TYPE":"PAYLOAD","NORAD_CAT_ID":"46790","SITE":"AFETR","MEAN_ANOMALY":"319.8125","BSTAR":"0.00006776200000","TIME_SYSTEM":"UTC","INCLINATION":"53.0543"},{"GP_ID":"183219332","TLE_LINE2":"2 46791  53.0546 216.4807 0001019  49.3851 310.7226 15.06394919 46054","MEAN_MOTION_DOT":"0.00000731","SEMIMAJOR_AXIS":"6925.364","APOAPSIS":"547.935","EPHEMERIS_TYPE":"0","CLASSIFICATION_TYPE":"U","RCS_SIZE":"LARGE","OBJECT_ID":"2020-074BE","MEAN_MOTION_DDOT":"0.0000000000000","LAUNCH_DATE":"2020-10-24","COUNTRY_CODE":"US","ARG_OF_PERICENTER":"49.3851","ELEMENT_SET_NO":"999","REV_AT_EPOCH":"4605","BSTAR":"0.00006797400000","MEAN_ANOMALY":"310.7226","SITE":"AFETR","INCLINATION":"53.0546","TIME_SYSTEM":"UTC","OBJECT_TYPE":"PAYLOAD","ECCENTRICITY":"0.00010190","NORAD_CAT_ID":"46791","TLE_LINE1":"1 46791U 20074BE  21234.06078344  .00000731  00000-0  67974-4 0  9992","EPOCH":"2021-08-22T01:27:31.689216","MEAN_MOTION":"15.06394919","OBJECT_NAME":"STARLINK-1933","CENTER_NAME":"EARTH","PERIAPSIS":"546.523","PERIOD":"95.592","RA_OF_ASC_NODE":"216.4807","MEAN_ELEMENT_THEORY":"SGP4","DECAY_DATE":null,"FILE":"3101163","REF_FRAME":"TEME"},{"ARG_OF_PERICENTER":"50.1071","LAUNCH_DATE":"2020-10-24","COUNTRY_CODE":"US","ELEMENT_SET_NO":"999","REV_AT_EPOCH":"4650","TLE_LINE2":"2 46792  53.0551 206.9489 0000924  50.1071 309.9999 15.06404701 46507","GP_ID":"183215062","APOAPSIS":"547.839","MEAN_MOTION_DOT":"0.00000324","SEMIMAJOR_AXIS":"6925.334","EPHEMERIS_TYPE":"0","CLASSIFICATION_TYPE":"U","OBJECT_ID":"2020-074BF","MEAN_MOTION_DDOT":"0.0000000000000","RCS_SIZE":"LARGE","EPOCH":"2021-08-21T22:54:54.206784","TLE_LINE1":"1 46792U 20074BF  21233.95479406  .00000324  00000-0  40638-4 0  9990","MEAN_MOTION":"15.06404701","OBJECT_NAME":"STARLINK-1934","CENTER_NAME":"EARTH","RA_OF_ASC_NODE":"206.9489","MEAN_ELEMENT_THEORY":"SGP4","PERIAPSIS":"546.559","PERIOD":"95.592","REF_FRAME":"TEME","FILE":"3101032","DECAY_DATE":null,"BSTAR":"0.00004063800000","SITE":"AFETR","MEAN_ANOMALY":"309.9999","INCLINATION":"53.0551","TIME_SYSTEM":"UTC","ECCENTRICITY":"0.00009240","OBJECT_TYPE":"PAYLOAD","NORAD_CAT_ID":"46792"},{"TIME_SYSTEM":"UTC","INCLINATION":"53.0555","MEAN_ANOMALY":"301.3209","SITE":"AFETR","BSTAR":"0.00004679700000","NORAD_CAT_ID":"46793","OBJECT_TYPE":"PAYLOAD","ECCENTRICITY":"0.00010560","CENTER_NAME":"EARTH","EPOCH":"2021-08-21T22:00:31.727232","TLE_LINE1":"1 46793U 20074BG  21233.91703388  .00000416  00000-0  46797-4 0  9990","MEAN_MOTION":"15.06394260","OBJECT_NAME":"STARLINK-1941","DECAY_DATE":null,"FILE":"3101032","REF_FRAME":"TEME","PERIOD":"95.593","PERIAPSIS":"546.500","MEAN_ELEMENT_THEORY":"SGP4","RA_OF_ASC_NODE":"217.1025","SEMIMAJOR_AXIS":"6925.366","MEAN_MOTION_DOT":"0.00000416","APOAPSIS":"547.962","GP_ID":"183213326","TLE_LINE2":"2 46793  53.0555 217.1025 0001056  58.7884 301.3209 15.06394260 46356","RCS_SIZE":"LARGE","MEAN_MOTION_DDOT":"0.0000000000000","OBJECT_ID":"2020-074BG","CLASSIFICATION_TYPE":"U","EPHEMERIS_TYPE":"0","ELEMENT_SET_NO":"999","COUNTRY_CODE":"US","LAUNCH_DATE":"2020-10-24","ARG_OF_PERICENTER":"58.7884","REV_AT_EPOCH":"4635"}];
